{
    "links": {
        "self": "http://www.neowsapp.com/rest/v1/neo/3054375?api_key=iIulBulltgU6a56xZRHN4H3l9WmuAYTsLGpBGhQ2"
    },
    "id": "3054375",
    "neo_reference_id": "3054375",
    "name": "(2000 UQ30)",
    "designation": "2000 UQ30",
    "nasa_jpl_url": "http://ssd.jpl.nasa.gov/sbdb.cgi?sstr=3054375",
    "absolute_magnitude_h": 22.1,
    "estimated_diameter": {
        "kilometers": {
            "estimated_diameter_min": 0.1010543415,
            "estimated_diameter_max": 0.2259643771
        },
        "meters": {
            "estimated_diameter_min": 101.054341542,
            "estimated_diameter_max": 225.9643771094
        },
        "miles": {
            "estimated_diameter_min": 0.0627922373,
            "estimated_diameter_max": 0.140407711
        },
        "feet": {
            "estimated_diameter_min": 331.5431259047,
            "estimated_diameter_max": 741.3529669956
        }
    },
    "is_potentially_hazardous_asteroid": true,
    "close_approach_data": [
        {
            "close_approach_date": "1994-02-14",
            "close_approach_date_full": "1994-Feb-14 21:35",
            "epoch_date_close_approach": 761261700000,
            "relative_velocity": {
                "kilometers_per_second": "12.1940964183",
                "kilometers_per_hour": "43898.747105849",
                "miles_per_hour": "27276.974278076"
            },
            "miss_distance": {
                "astronomical": "0.1675667759",
                "lunar": "65.1834758251",
                "kilometers": "25067632.757407333",
                "miles": "15576304.7126058754"
            },
            "orbiting_body": "Earth"
        },
        {
            "close_approach_date": "2000-11-19",
            "close_approach_date_full": "2000-Nov-19 20:04",
            "epoch_date_close_approach": 974664240000,
            "relative_velocity": {
                "kilometers_per_second": "9.6515501034",
                "kilometers_per_hour": "34745.5803723454",
                "miles_per_hour": "21589.5524263609"
            },
            "miss_distance": {
                "astronomical": "0.0606412816",
                "lunar": "23.5894585424",
                "kilometers": "9071806.561430192",
                "miles": "5636959.2080009696"
            },
            "orbiting_body": "Earth"
        },
        {
            "close_approach_date": "2010-07-19",
            "close_approach_date_full": "2010-Jul-19 18:25",
            "epoch_date_close_approach": 1279563900000,
            "relative_velocity": {
                "kilometers_per_second": "12.609662443",
                "kilometers_per_hour": "45394.7847947712",
                "miles_per_hour": "28206.5539187288"
            },
            "miss_distance": {
                "astronomical": "0.0476750781",
                "lunar": "18.5456053809",
                "kilometers": "7132090.135843647",
                "miles": "4431675.3108984486"
            },
            "orbiting_body": "Mars"
        }
    ],
    "orbital_data": {
        "orbit_id": "25",
        "orbit_determination_date": "2017-04-06 09:16:44",
        "first_observation_date": "2000-10-31",
        "last_observation_date": "2000-12-22",
        "data_arc_in_days": 52,
        "observations_used": 49,
        "orbit_uncertainty": "7",
        "minimum_orbit_intersection": ".0122226",
        "jupiter_tisserand_invariant": "4.008",
        "epoch_osculation": "2459000.5",
        "eccentricity": ".455116182277691",
        "semi_major_axis": "1.746528199242883",
        "inclination": "4.262023348283908",
        "ascending_node_longitude": "60.25233461148372",
        "orbital_period": "843.066495055348",
        "perihelion_distance": ".9516549529631316",
        "perihelion_argument": "37.76243831968335",
        "aphelion_distance": "2.541401445522634",
        "perihelion_time": "2458640.573514076294",
        "mean_anomaly": "153.6931377210379",
        "mean_motion": ".4270125809902642",
        "equinox": "J2000",
        "orbit_class": {
            "orbit_class_type": "APO",
            "orbit_class_description": "Near-Earth asteroid orbits which cross the Earth’s orbit similar to that of 1862 Apollo",
            "orbit_class_range": "a (semi-major axis) > 1.0 AU; q (perihelion) < 1.017 AU"
        }
    },
    "is_sentry_object": false
}